[{"OBJECT_NAME":"STARLINK-5758","OBJECT_ID":"2023-042BD","EPOCH":"2026-03-09T22:00:01.999584","MEAN_MOTION":15.13114236,"ECCENTRICITY":4.716e-5,"INCLINATION":43.0012,"RA_OF_ASC_NODE":28.418,"ARG_OF_PERICENTER":279.7474,"MEAN_ANOMALY":275.8474,"EPHEMERIS_TYPE":0,"CLASSIFICATION_TYPE":"U","NORAD_CAT_ID":56037,"ELEMENT_SET_NO":999,"REV_AT_EPOCH":573,"BSTAR":0.0040469381,"MEAN_MOTION_DOT":0.00073478,"MEAN_MOTION_DDOT":0},{"OBJECT_NAME":"COSMOS 2251 DEB","OBJECT_ID":"1993-036KZ","EPOCH":"2026-03-09T13:28:08.575968","MEAN_MOTION":15.07827872,"ECCENTRICITY":0.00279097,"INCLINATION":73.9949,"RA_OF_ASC_NODE":118.7357,"ARG_OF_PERICENTER":226.7607,"MEAN_ANOMALY":259.798,"EPHEMERIS_TYPE":0,"CLASSIFICATION_TYPE":"U","NORAD_CAT_ID":34128,"ELEMENT_SET_NO":999,"REV_AT_EPOCH":90472,"BSTAR":0.0021198383,"MEAN_MOTION_DOT":0.0003287,"MEAN_MOTION_DDOT":0}]
